{
    "links": {
        "self": "http://www.neowsapp.com/rest/v1/neo/3549566?api_key=iIulBulltgU6a56xZRHN4H3l9WmuAYTsLGpBGhQ2"
    },
    "id": "3549566",
    "neo_reference_id": "3549566",
    "name": "(2010 UB)",
    "designation": "2010 UB",
    "nasa_jpl_url": "http://ssd.jpl.nasa.gov/sbdb.cgi?sstr=3549566",
    "absolute_magnitude_h": 24.7,
    "estimated_diameter": {
        "kilometers": {
            "estimated_diameter_min": 0.0305179233,
            "estimated_diameter_max": 0.0682401509
        },
        "meters": {
            "estimated_diameter_min": 30.5179232594,
            "estimated_diameter_max": 68.2401509401
        },
        "miles": {
            "estimated_diameter_min": 0.0189629525,
            "estimated_diameter_max": 0.0424024508
        },
        "feet": {
            "estimated_diameter_min": 100.1244233463,
            "estimated_diameter_max": 223.8850168104
        }
    },
    "is_potentially_hazardous_asteroid": false,
    "close_approach_data": [
        {
            "close_approach_date": "2010-10-21",
            "close_approach_date_full": "2010-Oct-21 23:46",
            "epoch_date_close_approach": 1287704760000,
            "relative_velocity": {
                "kilometers_per_second": "8.3300092695",
                "kilometers_per_hour": "29988.0333702704",
                "miles_per_hour": "18633.3977349883"
            },
            "miss_distance": {
                "astronomical": "0.0396267876",
                "lunar": "15.4148203764",
                "kilometers": "5928083.019902412",
                "miles": "3683539.9805488056"
            },
            "orbiting_body": "Earth"
        }
    ],
    "orbital_data": {
        "orbit_id": "9",
        "orbit_determination_date": "2017-04-06 08:56:12",
        "first_observation_date": "2010-10-16",
        "last_observation_date": "2010-10-22",
        "data_arc_in_days": 6,
        "observations_used": 25,
        "orbit_uncertainty": "8",
        "minimum_orbit_intersection": ".00979562",
        "jupiter_tisserand_invariant": "3.601",
        "epoch_osculation": "2455487.5",
        "eccentricity": ".51899302282738",
        "semi_major_axis": "2.058655641252934",
        "inclination": "3.389685132352047",
        "ascending_node_longitude": "215.1247759371439",
        "orbital_period": "1078.882098100934",
        "perihelion_distance": ".9902277270384354",
        "perihelion_argument": "199.4598353932289",
        "aphelion_distance": "3.127083555467433",
        "perihelion_time": "2455511.902553408721",
        "mean_anomaly": "351.8573871578712",
        "mean_motion": ".3336787222938243",
        "equinox": "J2000",
        "orbit_class": {
            "orbit_class_type": "APO",
            "orbit_class_description": "Near-Earth asteroid orbits which cross the Earth’s orbit similar to that of 1862 Apollo",
            "orbit_class_range": "a (semi-major axis) > 1.0 AU; q (perihelion) < 1.017 AU"
        }
    },
    "is_sentry_object": false
}